H1 CPF  1  HTS 2022  8 22 12  7341 larets           NONE
H2  0304206 5557    27944 2022 08 22  0  0  0 2022 08 27  0  0  0   180 1 1  0 0 0
H5  0.0560 
H9 
10 0 59816  82440.00000  0   -4578941.478   -4661815.660   -2707020.706
10 0 59816  82620.00000  0   -4342623.075   -4014209.633   -3883572.211
10 0 59816  82800.00000  0   -3930457.256   -3229936.858   -4918659.676
10 0 59816  82980.00000  0   -3354447.448   -2342026.889   -5774890.636
10 0 59816  83160.00000  0   -2633332.886   -1386723.274   -6421453.551
10 0 59816  83340.00000  0   -1791949.781    -402004.577   -6835150.960
10 0 59816  83520.00000  0    -860362.727     573905.070   -7001153.047
10 0 59816  83700.00000  0     127193.913    1503979.491   -6913469.465
10 0 59816  83880.00000  0    1133535.825    2353751.075   -6575147.412
10 0 59816  84060.00000  0    2119884.982    3092556.538   -5998193.643
10 0 59816  84240.00000  0    3047328.177    3694634.298   -5203206.721
10 0 59816  84420.00000  0    3878329.922    4140035.970   -4218722.129
10 0 59816  84600.00000  0    4578254.680    4415324.886   -3080274.012
10 0 59816  84780.00000  0    5116837.911    4514024.694   -1829177.447
10 0 59816  84960.00000  0    5469532.251    4436787.712    -511060.831
10 0 59816  85140.00000  0    5618657.410    4191266.844     825804.337
10 0 59816  85320.00000  0    5554287.051    3791690.272    2132308.356
10 0 59816  85500.00000  0    5274822.019    3258150.419    3360367.453
10 0 59816  85680.00000  0    4787204.805    2615641.887    4464760.033
10 0 59816  85860.00000  0    4106763.563    1892899.227    5404841.881
10 0 59816  86040.00000  0    3256701.574    1121102.978    6146068.287
10 0 59816  86220.00000  0    2267252.911     332515.976    6661263.316
10 0 59817      0.00000  0    1174559.209    -440879.474    6931589.597
10 0 59817    180.00000  0      19314.130   -1168686.477    6947213.525
10 0 59817    360.00000  0   -1154780.661   -1823297.255    6707641.214
10 0 59817    540.00000  0   -2302685.794   -2380947.960    6221719.116
10 0 59817    720.00000  0   -3379759.849   -2822586.826    5507312.285
10 0 59817    900.00000  0   -4343517.900   -3134537.061    4590672.089
10 0 59817   1080.00000  0   -5155343.244   -3308926.290    3505482.544
10 0 59817   1260.00000  0   -5782069.920   -3343860.610    2291623.834
10 0 59817   1440.00000  0   -6197374.052   -3243341.644     993694.486
10 0 59817   1620.00000  0   -6382902.457   -3016927.010    -340663.900
10 0 59817   1800.00000  0   -6329076.288   -2679147.812   -1662563.732
10 0 59817   1980.00000  0   -6035526.703   -2248716.053   -2923712.026
10 0 59817   2160.00000  0   -5511141.774   -1747567.338   -4078202.574
10 0 59817   2340.00000  0   -4773738.525   -1199795.045   -5084184.082
10 0 59817   2520.00000  0   -3849386.311    -630530.864   -5905342.871
10 0 59817   2700.00000  0   -2771421.404     -64825.916   -6512150.478
10 0 59817   2880.00000  0   -1579207.920     473415.668   -6882844.389
10 0 59817   3060.00000  0    -316699.217     962407.682   -7004131.876
10 0 59817   3240.00000  0     969147.974    1383329.789   -6871614.135
10 0 59817   3420.00000  0    2230065.127    1721028.748   -6489938.329
10 0 59817   3600.00000  0    3418236.369    1964556.743   -5872667.948
10 0 59817   3780.00000  0    4488078.997    2107527.799   -5041861.538
10 0 59817   3960.00000  0    5397988.362    2148281.746   -4027368.808
10 0 59817   4140.00000  0    6111990.413    2089848.173   -2865839.906
10 0 59817   4320.00000  0    6601228.264    1939705.396   -1599464.575
10 0 59817   4500.00000  0    6845211.933    1709340.529    -274466.515
10 0 59817   4680.00000  0    6832752.670    1413622.946    1060598.226
10 0 59817   4860.00000  0    6562520.403    1070020.810    2356663.911
10 0 59817   5040.00000  0    6043193.343     697699.414    3566020.788
10 0 59817   5220.00000  0    5293175.961     316547.242    4644136.075
10 0 59817   5400.00000  0    4339903.312     -53813.525    5551339.116
10 0 59817   5580.00000  0    3218774.635    -394981.494    6254303.056
10 0 59817   5760.00000  0    1971769.305    -690646.286    6727262.333
10 0 59817   5940.00000  0     645820.572    -927334.763    6952934.891
10 0 59817   6120.00000  0    -708993.439   -1095005.955    6923127.908
10 0 59817   6300.00000  0   -2041367.400   -1187470.073    6639010.158
10 0 59817   6480.00000  0   -3300724.339   -1202616.180    6111056.211
10 0 59817   6660.00000  0   -4439150.441   -1142441.471    5358673.317
10 0 59817   6840.00000  0   -5413252.806   -1012887.235    4409509.059
10 0 59817   7020.00000  0   -6185859.676    -823484.882    3298445.512
10 0 59817   7200.00000  0   -6727486.283    -586825.820    2066315.796
10 0 59817   7380.00000  0   -7017508.970    -317880.596     758387.433
10 0 59817   7560.00000  0   -7044982.670     -33201.266    -577341.868
10 0 59817   7740.00000  0   -6809052.098     249951.857   -1891956.267
10 0 59817   7920.00000  0   -6318940.897     514512.320   -3137455.117
10 0 59817   8100.00000  0   -5593531.988     744490.553   -4268530.223
10 0 59817   8280.00000  0   -4660557.982     925794.481   -5244210.829
10 0 59817   8460.00000  0   -3555460.591    1046945.512   -6029305.305
10 0 59817   8640.00000  0   -2319987.114    1099658.007   -6595599.851
10 0 59817   8820.00000  0   -1000592.110    1079261.382   -6922791.023
10 0 59817   9000.00000  0     353293.778     984954.778   -6999139.799
10 0 59817   9180.00000  0    1691066.136     819885.388   -6821848.167
10 0 59817   9360.00000  0    2962782.823     591049.046   -6397164.112
10 0 59817   9540.00000  0    4120985.370     309014.293   -5740196.662
10 0 59817   9720.00000  0    5122448.050     -12524.024   -4874444.650
10 0 59817   9900.00000  0    5929807.793    -357348.883   -3831042.853
10 0 59817  10080.00000  0    6513014.608    -707464.881   -2647721.748
10 0 59817  10260.00000  0    6850534.277   -1043954.989   -1367500.502
10 0 59817  10440.00000  0    6930239.276   -1347911.674     -37142.770
10 0 59817  10620.00000  0    6749928.410   -1601396.198    1294569.382
10 0 59817  10800.00000  0    6317436.655   -1788377.209    2578673.458
10 0 59817  10980.00000  0    5650317.501   -1895595.717    3767892.909
10 0 59817  11160.00000  0    4775108.375   -1913306.656    4818439.100
10 0 59817  11340.00000  0    3726224.768   -1835858.008    5691663.429
10 0 59817  11520.00000  0    2544544.906   -1662077.298    6355497.127
10 0 59817  11700.00000  0    1275752.584   -1395450.455    6785620.424
10 0 59817  11880.00000  0     -31479.070   -1044085.960    6966329.152
10 0 59817  12060.00000  0   -1327389.149    -620464.144    6891078.547
10 0 59817  12240.00000  0   -2563040.017    -140983.730    6562698.387
10 0 59817  12420.00000  0   -3692176.647     374679.464    5993284.080
10 0 59817  12600.00000  0   -4672978.594     904379.497    5203765.393
10 0 59817  12780.00000  0   -5469644.272    1424443.574    4223154.774
10 0 59817  12960.00000  0   -6053742.244    1910716.582    3087491.094
10 0 59817  13140.00000  0   -6405268.951    2339660.666    1838511.375
10 0 59817  13320.00000  0   -6513368.591    2689458.650     522095.885
10 0 59817  13500.00000  0   -6376674.361    2941066.282    -813459.654
10 0 59817  13680.00000  0   -6003249.489    3079155.230   -2119265.428
10 0 59817  13860.00000  0   -5410136.261    3092899.906   -3347670.480
10 0 59817  14040.00000  0   -4622538.071    2976567.338   -4454024.163
10 0 59817  14220.00000  0   -3672689.664    2729883.606   -5398285.416
10 0 59817  14400.00000  0   -2598485.696    2358167.167   -6146421.005
10 0 59817  14580.00000  0   -1441942.263    1872232.474   -6671558.842
10 0 59817  14760.00000  0    -247552.956    1288070.093   -6954873.619
10 0 59817  14940.00000  0     939391.303     626320.680   -6986191.545
10 0 59817  15120.00000  0    2074470.288     -88437.455   -6764321.913
10 0 59817  15300.00000  0    3115752.042    -828573.213   -6297106.502
10 0 59817  15480.00000  0    4025309.846   -1564434.604   -5601183.094
10 0 59817  15660.00000  0    4770598.726   -2265500.513   -4701466.504
10 0 59817  15840.00000  0    5325650.979   -2901623.834   -3630343.642
10 0 59817  16020.00000  0    5672038.827   -3444316.943   -2426584.780
10 0 59817  16200.00000  0    5799559.255   -3868023.805   -1133990.501
10 0 59817  16380.00000  0    5706595.896   -4151317.900     200188.608
10 0 59817  16560.00000  0    5400128.973   -4277962.741    1527003.222
10 0 59817  16740.00000  0    4895378.520   -4237772.516    2797656.393
10 0 59817  16920.00000  0    4215091.969   -4027215.092    3965363.662
10 0 59817  17100.00000  0    3388518.714   -3649728.685    4987132.299
10 0 59817  17280.00000  0    2450122.001   -3115735.306    5825383.688
10 0 59817  17460.00000  0    1438099.865   -2442348.677    6449347.199
10 0 59817  17640.00000  0     392789.093   -1652797.315    6836176.800
10 0 59817  17820.00000  0    -644972.918    -775592.214    6971759.701
10 0 59817  18000.00000  0   -1635460.327     156528.491    6851203.490
10 0 59817  18180.00000  0   -2541589.266    1107838.780    6478996.252
10 0 59817  18360.00000  0   -3330316.611    2041005.442    5868838.710
10 0 59817  18540.00000  0   -3973861.324    2918563.479    5043153.820
10 0 59817  18720.00000  0   -4450708.211    3704436.647    4032281.155
10 0 59817  18900.00000  0   -4746353.459    4365440.902    2873371.496
10 0 59817  19080.00000  0   -4853757.627    4872706.722    1609015.108
10 0 59817  19260.00000  0   -4773481.067    5202952.187     285649.118
10 0 59817  19440.00000  0   -4513498.498    5339536.220   -1048190.357
10 0 59817  19620.00000  0   -4088701.336    5273243.104   -2343699.764
10 0 59817  19800.00000  0   -3520107.456    5002750.200   -3553636.742
10 0 59817  19980.00000  0   -2833833.480    4534762.073   -4634057.931
10 0 59817  20160.00000  0   -2059889.207    3883813.861   -5545890.606
10 0 59817  20340.00000  0   -1230864.601    3071773.741   -6256288.396
99
